OBJECT_NAME,OBJECT_ID,EPOCH,MEAN_MOTION,ECCENTRICITY,INCLINATION,RA_OF_ASC_NODE,ARG_OF_PERICENTER,MEAN_ANOMALY,EPHEMERIS_TYPE,CLASSIFICATION_TYPE,NORAD_CAT_ID,ELEMENT_SET_NO,REV_AT_EPOCH,BSTAR,MEAN_MOTION_DOT,MEAN_MOTION_DDOT
STARLINK-31095,2023-211S,2024-03-31T11:06:52.080192,15.25921879,.0000819,43.0031,118.6826,233.6432,126.4344,0,U,58683,999,1549,.59069E-5,-.103E-5,0
STARLINK-31107,2023-211T,2024-03-31T01:28:18.213024,15.25903883,.0000427,43.0011,120.8123,51.2469,308.8420,0,U,58684,999,1416,.67253E-4,.1502E-4,0
STARLINK-31121,2023-211U,2024-03-31T18:35:21.958080,15.25940786,.0001742,43.0038,116.7030,275.8819,84.1834,0,U,58685,999,1544,.10746E-2,.27985E-3,0
STARLINK-31137,2023-211V,2024-03-31T18:22:19.901568,15.25917671,.0001114,43.0007,116.6359,280.4978,79.5748,0,U,58686,999,1554,-.15945E-3,-.4427E-4,0
STARLINK-31109,2023-211W,2024-03-31T22:00:00.999936,15.74799712,.0003746,42.9952,89.5175,163.1153,302.9443,0,U,58687,999,1587,.15807E-2,.247031E-2,0
STARLINK-31139,2023-211X,2024-03-31T18:41:53.399328,15.25922594,.0000919,43.0014,116.7377,274.8479,85.2268,0,U,58688,999,1554,.49992E-3,.12847E-3,0
STARLINK-31106,2023-211Y,2024-03-31T18:51:40.674816,15.25895237,.0000542,42.9981,116.8041,12.7116,347.3749,0,U,58689,999,1544,-.2181E-4,-.827E-5,0
STARLINK-11072 [DTC],2024-002A,2024-03-31T11:37:57.260064,15.69841002,.0001023,53.1558,172.7104,95.8166,264.2968,0,U,58705,999,1510,.65705E-3,.80222E-3,0
STARLINK-11075 [DTC],2024-002B,2024-03-31T22:00:00.999936,15.69717941,.0003101,53.1561,170.5226,44.5442,265.7325,0,U,58706,999,1512,-.18905E-4,-.2883E-4,0
STARLINK-11077 [DTC],2024-002C,2024-03-31T11:27:57.448800,15.69723188,.0001235,53.1573,172.6478,67.7246,292.3902,0,U,58707,999,1510,.44958E-4,.4864E-4,0
STARLINK-11079 [DTC],2024-002D,2024-03-31T11:20:47.200992,15.69732907,.0000891,53.1564,172.6258,57.9870,302.1235,0,U,58708,999,1510,.11091E-3,.12881E-3,0
STARLINK-11076 [DTC],2024-002E,2024-03-31T12:16:57.603648,15.69695284,.0001351,53.1567,172.1533,79.1884,280.9286,0,U,58709,999,1511,-.4225E-5,-.11E-4,0
STARLINK-11078 [DTC],2024-002F,2024-03-31T12:20:12.669792,15.69659811,.000132,53.1565,172.1699,93.2257,266.8911,0,U,58710,999,1511,-.23386E-3,-.28764E-3,0
STARLINK-31031,2024-002G,2024-03-31T16:23:48.991488,15.04945456,.0001325,53.1581,200.4115,86.1249,273.9893,0,U,58711,999,1458,.10496E-2,.14787E-3,0
STARLINK-31029,2024-002H,2024-03-31T14:14:21.344640,15.04937098,.0001113,53.1591,201.2673,93.5686,266.5431,0,U,58712,999,1456,-.44653E-4,-.917E-5,0
STARLINK-30973,2024-002J,2024-03-31T14:09:43.185024,15.04929002,.000143,53.1597,201.2489,76.9380,283.1769,0,U,58713,999,1468,.11933E-3,.1431E-4,0
STARLINK-31100,2024-002K,2024-03-31T14:05:04.918272,15.04935478,.0001786,53.1598,201.2248,91.0104,269.1090,0,U,58714,999,1472,.86376E-4,.959E-5,0
STARLINK-31102,2024-002L,2024-03-31T14:00:26.936640,15.04931949,.0001537,53.1590,201.2031,92.6456,267.4709,0,U,58715,999,1461,.29921E-3,.4009E-4,0
STARLINK-31098,2024-002M,2024-03-31T13:55:49.035360,15.04928173,.0001336,53.1578,201.1832,96.4634,263.6507,0,U,58716,999,1471,.17413E-3,.2216E-4,0
STARLINK-31093,2024-002N,2024-03-31T13:17:11.068512,15.04955933,.0001161,53.1564,201.0330,78.4296,281.6824,0,U,58717,999,1471,.13319E-2,.18855E-3,0
STARLINK-31097,2024-002P,2024-03-31T13:51:10.918944,15.04932863,.0001477,53.1591,201.1646,92.8598,267.2561,0,U,58718,999,1471,.67534E-3,.9405E-4,0
