STARLINK-31095          
1 58683U 23211S   24091.46310278 -.00000103  00000+0  59069-5 0  9994
2 58683  43.0031 118.6826 0000819 233.6432 126.4344 15.25921879 15498
STARLINK-31107          
1 58684U 23211T   24091.06132191  .00001502  00000+0  67253-4 0  9993
2 58684  43.0011 120.8123 0000427  51.2469 308.8420 15.25903883 14160
STARLINK-31121          
1 58685U 23211U   24091.77455970  .00027985  00000+0  10746-2 0  9991
2 58685  43.0038 116.7030 0001742 275.8819  84.1834 15.25940786 15443
STARLINK-31137          
1 58686U 23211V   24091.76550812 -.00004427  00000+0 -15945-3 0  9997
2 58686  43.0007 116.6359 0001114 280.4978  79.5748 15.25917671 15544
STARLINK-31109          
1 58687U 23211W   24091.91667824  .00247031  00000+0  15807-2 0  9991
2 58687  42.9952  89.5175 0003746 163.1153 302.9443 15.74799712 15870
STARLINK-31139          
1 58688U 23211X   24091.77909027  .00012847  00000+0  49992-3 0  9998
2 58688  43.0014 116.7377 0000919 274.8479  85.2268 15.25922594 15541
STARLINK-31106          
1 58689U 23211Y   24091.78588744 -.00000827  00000+0 -21810-4 0  9996
2 58689  42.9981 116.8041 0000542  12.7116 347.3749 15.25895237 15449
STARLINK-11072          
1 58705U 24002A   24091.48469051  .00080222  00000+0  65705-3 0  9995
2 58705  53.1558 172.7104 0001023  95.8166 264.2968 15.69841002 15107
STARLINK-11075          
1 58706U 24002B   24091.91667824 -.00002883  00000+0 -18905-4 0  9992
2 58706  53.1561 170.5226 0003101  44.5442 265.7325 15.69717941 15129
STARLINK-11077          
1 58707U 24002C   24091.47774825  .00004864  00000+0  44958-4 0  9990
2 58707  53.1573 172.6478 0001235  67.7246 292.3902 15.69723188 15105
STARLINK-11079          
1 58708U 24002D   24091.47276853  .00012881  00000+0  11091-3 0  9998
2 58708  53.1564 172.6258 0000891  57.9870 302.1235 15.69732907 15101
STARLINK-11076          
1 58709U 24002E   24091.51177782 -.00001100  00000+0 -42250-5 0  9992
2 58709  53.1567 172.1533 0001351  79.1884 280.9286 15.69695284 15115
STARLINK-11078          
1 58710U 24002F   24091.51403553 -.00028764  00000+0 -23386-3 0  9994
2 58710  53.1565 172.1699 0001320  93.2257 266.8911 15.69659811 15119
STARLINK-31031          
1 58711U 24002G   24091.68320592  .00014787  00000+0  10496-2 0  9999
2 58711  53.1581 200.4115 0001325  86.1249 273.9893 15.04945456 14583
STARLINK-31029          
1 58712U 24002H   24091.59330260 -.00000917  00000+0 -44653-4 0  9999
2 58712  53.1591 201.2673 0001113  93.5686 266.5431 15.04937098 14562
STARLINK-30973          
1 58713U 24002J   24091.59008316  .00001431  00000+0  11933-3 0  9998
2 58713  53.1597 201.2489 0001430  76.9380 283.1769 15.04929002 14680
STARLINK-31100          
1 58714U 24002K   24091.58686248  .00000959  00000+0  86376-4 0  9992
2 58714  53.1598 201.2248 0001786  91.0104 269.1090 15.04935478 14721
STARLINK-31102          
1 58715U 24002L   24091.58364510  .00004009  00000+0  29921-3 0  9990
2 58715  53.1590 201.2031 0001537  92.6456 267.4709 15.04931949 14610
STARLINK-31098          
1 58716U 24002M   24091.58042865  .00002216  00000+0  17413-3 0  9998
2 58716  53.1578 201.1832 0001336  96.4634 263.6507 15.04928173 14712
STARLINK-31093          
1 58717U 24002N   24091.55360033  .00018855  00000+0  13319-2 0  9992
2 58717  53.1564 201.0330 0001161  78.4296 281.6824 15.04955933 14716
STARLINK-31097          
1 58718U 24002P   24091.57720971  .00009405  00000+0  67534-3 0  9996
2 58718  53.1591 201.1646 0001477  92.8598 267.2561 15.04932863 14718
